{"type": "FeatureCollection", "features": [ {"type": "Feature", "properties": {"norad_id": 33917, "name": "COSMOS 2251 DEB", "group": "cosmos-2251-debris", "lat": 9.74820105592124, "lon": -82.47301221106191, "alt_km": 786.561969176315, "timestamp": "2025-12-26T04:40:06.177864+00:00", "meta": {"OBJECT_NAME": "COSMOS 2251 DEB", "OBJECT_ID": "1993-036DW", "EPOCH": "2025-12-25T17:18:27.771264", "MEAN_MOTION": 13.6938971, "ECCENTRICITY": 0.03311389, "INCLINATION": 74.1073, "RA_OF_ASC_NODE": 101.1083, "ARG_OF_PERICENTER": 199.2418, "MEAN_ANOMALY": 159.5953, "EPHEMERIS_TYPE": 0, "CLASSIFICATION_TYPE": "U", "NORAD_CAT_ID": 33917, "ELEMENT_SET_NO": 999, "REV_AT_EPOCH": 83911, "BSTAR": 0.0010734281, "MEAN_MOTION_DOT": 1.349e-05, "MEAN_MOTION_DDOT": 0}, "tle": {"line1": "1 33917U 93036DW  25359.72115476  .00001349  00000+0  10734-2 0  9994", "line2": "2 33917  74.1073 101.1083 0331138 199.2418 159.5953 13.69389710839110"}}, "geometry": {"type": "Point", "coordinates": [-82.47301221106191, 9.74820105592124]}}, {"type": "Feature", "properties": {"norad_id": 33920, "name": "COSMOS 2251 DEB", "group": "cosmos-2251-debris", "lat": -56.858402633867726, "lon": 118.81468696677473, "alt_km": 683.4064628058359, "timestamp": "2025-12-26T04:40:06.177874+00:00", "meta": {"OBJECT_NAME": "COSMOS 2251 DEB", "OBJECT_ID": "1993-036DZ", "EPOCH": "2025-12-25T19:20:05.558496", "MEAN_MOTION": 14.58472232, "ECCENTRICITY": 0.00376879, "INCLINATION": 74.061, "RA_OF_ASC_NODE": 273.5967, "ARG_OF_PERICENTER": 278.0618, "MEAN_ANOMALY": 81.6272, "EPHEMERIS_TYPE": 0, "CLASSIFICATION_TYPE": "U", "NORAD_CAT_ID": 33920, "ELEMENT_SET_NO": 999, "REV_AT_EPOCH": 88305, "BSTAR": 0.0016700668, "MEAN_MOTION_DOT": 7.807e-05, "MEAN_MOTION_DDOT": 0}, "tle": {"line1": "1 33920U 93036DZ  25359.80561989  .00007807  00000+0  16701-2 0  9996", "line2": "2 33920  74.0610 273.5967 0037687 278.0618  81.6272 14.58472232883057"}}, "geometry": {"type": "Point", "coordinates": [118.81468696677473, -56.858402633867726]}}, {"type": "Feature", "properties": {"norad_id": 33922, "name": "COSMOS 2251 DEB", "group": "cosmos-2251-debris", "lat": -43.03491406273048, "lon": 107.04559390143133, "alt_km": 731.4128950246404, "timestamp": "2025-12-26T04:40:06.177884+00:00", "meta": {"OBJECT_NAME": "COSMOS 2251 DEB", "OBJECT_ID": "1993-036EB", "EPOCH": "2025-12-25T19:31:12.971712", "MEAN_MOTION": 14.49555987, "ECCENTRICITY": 0.0023093, "INCLINATION": 74.0471, "RA_OF_ASC_NODE": 123.2498, "ARG_OF_PERICENTER": 232.4585, "MEAN_ANOMALY": 253.8509, "EPHEMERIS_TYPE": 0, "CLASSIFICATION_TYPE": "U", "NORAD_CAT_ID": 33922, "ELEMENT_SET_NO": 999, "REV_AT_EPOCH": 88767, "BSTAR": 0.00055201276, "MEAN_MOTION_DOT": 2.098e-05, "MEAN_MOTION_DDOT": 0}, "tle": {"line1": "1 33922U 93036EB  25359.81334458  .00002098  00000+0  55201-3 0  9994", "line2": "2 33922  74.0471 123.2498 0023093 232.4585 253.8509 14.49555987887674"}}, "geometry": {"type": "Point", "coordinates": [107.04559390143133, -43.03491406273048]}}, {"type": "Feature", "properties": {"norad_id": 33924, "name": "COSMOS 2251 DEB", "group": "cosmos-2251-debris", "lat": 57.729035515635736, "lon": 41.38228485498822, "alt_km": 1352.60525827962, "timestamp": "2025-12-26T04:40:06.177895+00:00", "meta": {"OBJECT_NAME": "COSMOS 2251 DEB", "OBJECT_ID": "1993-036ED", "EPOCH": "2025-12-25T19:09:54.285408", "MEAN_MOTION": 13.50240202, "ECCENTRICITY": 0.04037825, "INCLINATION": 73.9129, "RA_OF_ASC_NODE": 249.2106, "ARG_OF_PERICENTER": 282.3555, "MEAN_ANOMALY": 73.2641, "EPHEMERIS_TYPE": 0, "CLASSIFICATION_TYPE": "U", "NORAD_CAT_ID": 33924, "ELEMENT_SET_NO": 999, "REV_AT_EPOCH": 82915, "BSTAR": 0.00043139757, "MEAN_MOTION_DOT": 4.33e-06, "MEAN_MOTION_DDOT": 0}, "tle": {"line1": "1 33924U 93036ED  25359.79854497  .00000433  00000+0  43140-3 0  9993", "line2": "2 33924  73.9129 249.2106 0403782 282.3555  73.2641 13.50240202829159"}}, "geometry": {"type": "Point", "coordinates": [41.38228485498822, 57.729035515635736]}}, {"type": "Feature", "properties": {"norad_id": 33928, "name": "COSMOS 2251 DEB", "group": "cosmos-2251-debris", "lat": 53.503117481839446, "lon": 50.170055869409865, "alt_km": 734.713934772004, "timestamp": "2025-12-26T04:40:06.177905+00:00", "meta": {"OBJECT_NAME": "COSMOS 2251 DEB", "OBJECT_ID": "1993-036EH", "EPOCH": "2025-12-25T11:49:13.147392", "MEAN_MOTION": 14.47427821, "ECCENTRICITY": 0.0062056, "INCLINATION": 73.9252, "RA_OF_ASC_NODE": 28.554, "ARG_OF_PERICENTER": 320.0905, "MEAN_ANOMALY": 39.5698, "EPHEMERIS_TYPE": 0, "CLASSIFICATION_TYPE": "U", "NORAD_CAT_ID": 33928, "ELEMENT_SET_NO": 999, "REV_AT_EPOCH": 88829, "BSTAR": 0.00026109, "MEAN_MOTION_DOT": 9.52e-06, "MEAN_MOTION_DDOT": 0}, "tle": {"line1": "1 33928U 93036EH  25359.49251328  .00000952  00000+0  26109-3 0  9990", "line2": "2 33928  73.9252  28.5540 0062056 320.0905  39.5698 14.47427821888292"}}, "geometry": {"type": "Point", "coordinates": [50.170055869409865, 53.503117481839446]}}, {"type": "Feature", "properties": {"norad_id": 33932, "name": "COSMOS 2251 DEB", "group": "cosmos-2251-debris", "lat": 42.21733605450778, "lon": 96.04708948444971, "alt_km": 775.6489992378683, "timestamp": "2025-12-26T04:40:06.177915+00:00", "meta": {"OBJECT_NAME": "COSMOS 2251 DEB", "OBJECT_ID": "1993-036EM", "EPOCH": "2025-12-25T21:22:01.560576", "MEAN_MOTION": 14.38795551, "ECCENTRICITY": 0.00359928, "INCLINATION": 74.0343, "RA_OF_ASC_NODE": 291.6628, "ARG_OF_PERICENTER": 4.7374, "MEAN_ANOMALY": 355.4113, "EPHEMERIS_TYPE": 0, "CLASSIFICATION_TYPE": "U", "NORAD_CAT_ID": 33932, "ELEMENT_SET_NO": 999, "REV_AT_EPOCH": 88187, "BSTAR": 0.00047027744, "MEAN_MOTION_DOT": 1.43e-05, "MEAN_MOTION_DDOT": 0}, "tle": {"line1": "1 33932U 93036EM  25359.89029584  .00001430  00000+0  47028-3 0  9991", "line2": "2 33932  74.0343 291.6628 0035992   4.7374 355.4113 14.38795551881872"}}, "geometry": {"type": "Point", "coordinates": [96.04708948444971, 42.21733605450778]}}, {"type": "Feature", "properties": {"norad_id": 33933, "name": "COSMOS 2251 DEB", "group": "cosmos-2251-debris", "lat": 74.03136152455886, "lon": 121.06809486142002, "alt_km": 738.8393430327387, "timestamp": "2025-12-26T04:40:06.177925+00:00", "meta": {"OBJECT_NAME": "COSMOS 2251 DEB", "OBJECT_ID": "1993-036EN", "EPOCH": "2025-12-25T13:11:14.384256", "MEAN_MOTION": 14.33508205, "ECCENTRICITY": 0.007104, "INCLINATION": 74.0888, "RA_OF_ASC_NODE": 36.7896, "ARG_OF_PERICENTER": 41.385, "MEAN_ANOMALY": 319.2653, "EPHEMERIS_TYPE": 0, "CLASSIFICATION_TYPE": "U", "NORAD_CAT_ID": 33933, "ELEMENT_SET_NO": 999, "REV_AT_EPOCH": 87968, "BSTAR": 0.00027697, "MEAN_MOTION_DOT": 7.62e-06, "MEAN_MOTION_DDOT": 0}, "tle": {"line1": "1 33933U 93036EN  25359.54947204  .00000762  00000+0  27697-3 0  9999", "line2": "2 33933  74.0888  36.7896 0071040  41.3850 319.2653 14.33508205879688"}}, "geometry": {"type": "Point", "coordinates": [121.06809486142002, 74.03136152455886]}}, {"type": "Feature", "properties": {"norad_id": 33934, "name": "COSMOS 2251 DEB", "group": "cosmos-2251-debris", "lat": 6.369452070913234, "lon": 76.76641932921652, "alt_km": 707.9192807951249, "timestamp": "2025-12-26T04:40:06.177936+00:00", "meta": {"OBJECT_NAME": "COSMOS 2251 DEB", "OBJECT_ID": "1993-036EP", "EPOCH": "2025-12-25T15:28:29.335008", "MEAN_MOTION": 14.59210622, "ECCENTRICITY": 0.0015061, "INCLINATION": 74.0379, "RA_OF_ASC_NODE": 75.9826, "ARG_OF_PERICENTER": 199.4806, "MEAN_ANOMALY": 160.5785, "EPHEMERIS_TYPE": 0, "CLASSIFICATION_TYPE": "U", "NORAD_CAT_ID": 33934, "ELEMENT_SET_NO": 999, "REV_AT_EPOCH": 88927, "BSTAR": 0.00087963, "MEAN_MOTION_DOT": 4.129e-05, "MEAN_MOTION_DDOT": 0}, "tle": {"line1": "1 33934U 93036EP  25359.64478397  .00004129  00000+0  87963-3 0  9996", "line2": "2 33934  74.0379  75.9826 0015061 199.4806 160.5785 14.59210622889279"}}, "geometry": {"type": "Point", "coordinates": [76.76641932921652, 6.369452070913234]}}, {"type": "Feature", "properties": {"norad_id": 33936, "name": "COSMOS 2251 DEB", "group": "cosmos-2251-debris", "lat": -9.44926317636583, "lon": 9.033532579515633, "alt_km": 714.5811825996088, "timestamp": "2025-12-26T04:40:06.177946+00:00", "meta": {"OBJECT_NAME": "COSMOS 2251 DEB", "OBJECT_ID": "1993-036ER", "EPOCH": "2025-12-25T10:37:41.418336", "MEAN_MOTION": 14.6034528, "ECCENTRICITY": 0.0026686, "INCLINATION": 74.018, "RA_OF_ASC_NODE": 13.2036, "ARG_OF_PERICENTER": 165.5322, "MEAN_ANOMALY": 194.6614, "EPHEMERIS_TYPE": 0, "CLASSIFICATION_TYPE": "U", "NORAD_CAT_ID": 33936, "ELEMENT_SET_NO": 999, "REV_AT_EPOCH": 89075, "BSTAR": 0.0006392, "MEAN_MOTION_DOT": 3.077e-05, "MEAN_MOTION_DDOT": 0}, "tle": {"line1": "1 33936U 93036ER  25359.44284049  .00003077  00000+0  63920-3 0  9993", "line2": "2 33936  74.0180  13.2036 0026686 165.5322 194.6614 14.60345280890756"}}, "geometry": {"type": "Point", "coordinates": [9.033532579515633, -9.44926317636583]}}, {"type": "Feature", "properties": {"norad_id": 33938, "name": "COSMOS 2251 DEB", "group": "cosmos-2251-debris", "lat": -74.01702886242163, "lon": 94.74258587367522, "alt_km": 731.1279995004088, "timestamp": "2025-12-26T04:40:06.177956+00:00", "meta": {"OBJECT_NAME": "COSMOS 2251 DEB", "OBJECT_ID": "1993-036ET", "EPOCH": "2025-12-25T22:59:46.506624", "MEAN_MOTION": 14.4683273, "ECCENTRICITY": 0.00167956, "INCLINATION": 74.0436, "RA_OF_ASC_NODE": 182.4964, "ARG_OF_PERICENTER": 263.6262, "MEAN_ANOMALY": 216.596, "EPHEMERIS_TYPE": 0, "CLASSIFICATION_TYPE": "U", "NORAD_CAT_ID": 33938, "ELEMENT_SET_NO": 999, "REV_AT_EPOCH": 88591, "BSTAR": 0.00043301109, "MEAN_MOTION_DOT": 1.545e-05, "MEAN_MOTION_DDOT": 0}, "tle": {"line1": "1 33938U 93036ET  25359.95817716  .00001545  00000+0  43301-3 0  9993", "line2": "2 33938  74.0436 182.4964 0016795 263.6262 216.5960 14.46832730885919"}}, "geometry": {"type": "Point", "coordinates": [94.74258587367522, -74.01702886242163]}}]}